STARLINK-34060          
1 63815U 25092M   26068.33547328  .00020446  00000+0  75064-3 0  9998
2 63815  43.0030 174.2772 0000975 270.5155  89.5585 15.27572284 48501
REAL                    
1 64875U 25154G   26068.72233414  .00022901  00000+0  82904-3 0  9994
2 64875  97.4133 137.2581 0001853 118.5876 241.5550 15.28408058 34830
